ONEWEB-0291             
1 49081U 21075G   25181.19913458  .00000060  00000+0  12224-3 0  9993
2 49081  87.9053  75.9239 0001938  71.6547 288.4795 13.17649651187251
ONEWEB-0293             
1 49082U 21075H   25181.60412654  .00000050  00000+0  96549-4 0  9994
2 49082  87.9060  75.8763 0002026  76.9240 283.2118 13.17649112187331
ONEWEB-0294             
1 49083U 21075J   25181.57115224  .00000362  00000+0  97179-3 0  9999
2 49083  87.8866  60.5807 0002248  72.1572 287.9802 13.12442987188458
ONEWEB-0295             
1 49084U 21075K   25181.60327479 -.00000031  00000+0 -11376-3 0  9991
2 49084  87.9073  75.8723 0001826  67.0004 293.1320 13.17649738187293
ONEWEB-0296             
1 49085U 21075L   25181.17050010 -.00000039  00000+0 -14292-3 0  9996
2 49085  87.8871  60.6693 0001982  62.8805 297.2525 13.12445445188402
ONEWEB-0297             
1 49086U 21075M   25181.58250230  .00000343  00000+0  91903-3 0  9998
2 49086  87.8878  60.6227 0001751  78.8655 281.2670 13.12442758189068
ONEWEB-0298             
1 49087U 21075N   25181.60764550 -.00000005  00000+0 -47157-4 0  9997
2 49087  87.9059  75.8738 0001716  77.4947 282.6376 13.17651726187323
ONEWEB-0299             
1 49088U 21075P   25181.60918077  .00000043  00000+0  78516-4 0  9996
2 49088  87.9055  75.8262 0001687  76.1572 283.9747 13.17648494187301
